{"type": "FeatureCollection", "features": [ {"type": "Feature", "properties": {"norad_id": 38146, "name": "FENGYUN 1C DEB", "group": "fengyun-1c-debris", "lat": -26.59614015392007, "lon": 82.56761896885375, "alt_km": 728.7477554161305, "timestamp": "2025-12-21T22:41:41.749742+00:00", "meta": {"OBJECT_NAME": "FENGYUN 1C DEB", "OBJECT_ID": "1999-025EQT", "EPOCH": "2025-12-18T00:08:51.919008", "MEAN_MOTION": 14.59286747, "ECCENTRICITY": 0.02022294, "INCLINATION": 99.4834, "RA_OF_ASC_NODE": 73.268, "ARG_OF_PERICENTER": 87.2264, "MEAN_ANOMALY": 84.0387, "EPHEMERIS_TYPE": 0, "CLASSIFICATION_TYPE": "U", "NORAD_CAT_ID": 38146, "ELEMENT_SET_NO": 999, "REV_AT_EPOCH": 31956, "BSTAR": 0.00063226228, "MEAN_MOTION_DOT": 3.907e-05, "MEAN_MOTION_DDOT": 0}, "tle": {"line1": "1 38146U 99025EQT 25352.00615647  .00003907  00000+0  63226-3 0  9993", "line2": "2 38146  99.4834  73.2680 0202229  87.2264  84.0387 14.59286747319560"}}, "geometry": {"type": "Point", "coordinates": [82.56761896885375, -26.59614015392007]}}, {"type": "Feature", "properties": {"norad_id": 38147, "name": "FENGYUN 1C DEB", "group": "fengyun-1c-debris", "lat": 35.23240214225805, "lon": 3.8127098176816485, "alt_km": 830.4652899681978, "timestamp": "2025-12-21T22:41:41.749752+00:00", "meta": {"OBJECT_NAME": "FENGYUN 1C DEB", "OBJECT_ID": "1999-025EQU", "EPOCH": "2025-12-21T07:20:40.413120", "MEAN_MOTION": 14.23465696, "ECCENTRICITY": 0.0049661, "INCLINATION": 98.5577, "RA_OF_ASC_NODE": 9.2955, "ARG_OF_PERICENTER": 274.8439, "MEAN_ANOMALY": 84.7071, "EPHEMERIS_TYPE": 0, "CLASSIFICATION_TYPE": "U", "NORAD_CAT_ID": 38147, "ELEMENT_SET_NO": 999, "REV_AT_EPOCH": 60509, "BSTAR": 0.00046715, "MEAN_MOTION_DOT": 1.032e-05, "MEAN_MOTION_DDOT": 0}, "tle": {"line1": "1 38147U 99025EQU 25355.30602330  .00001032  00000+0  46715-3 0  9996", "line2": "2 38147  98.5577   9.2955 0049661 274.8439  84.7071 14.23465696605092"}}, "geometry": {"type": "Point", "coordinates": [3.8127098176816485, 35.23240214225805]}}, {"type": "Feature", "properties": {"norad_id": 38149, "name": "FENGYUN 1C DEB", "group": "fengyun-1c-debris", "lat": -76.5835481681377, "lon": 129.7154794646996, "alt_km": 844.6023527826874, "timestamp": "2025-12-21T22:41:41.749762+00:00", "meta": {"OBJECT_NAME": "FENGYUN 1C DEB", "OBJECT_ID": "1999-025EQW", "EPOCH": "2025-12-07T17:18:01.960128", "MEAN_MOTION": 14.25910713, "ECCENTRICITY": 0.00777044, "INCLINATION": 98.3566, "RA_OF_ASC_NODE": 334.1881, "ARG_OF_PERICENTER": 175.9559, "MEAN_ANOMALY": 184.2267, "EPHEMERIS_TYPE": 0, "CLASSIFICATION_TYPE": "U", "NORAD_CAT_ID": 38149, "ELEMENT_SET_NO": 999, "REV_AT_EPOCH": 70416, "BSTAR": 0.00036135678, "MEAN_MOTION_DOT": 8.47e-06, "MEAN_MOTION_DDOT": 0}, "tle": {"line1": "1 38149U 99025EQW 25341.72085602  .00000847  00000+0  36136-3 0  9995", "line2": "2 38149  98.3566 334.1881 0077704 175.9559 184.2267 14.25910713704169"}}, "geometry": {"type": "Point", "coordinates": [129.7154794646996, -76.5835481681377]}}, {"type": "Feature", "properties": {"norad_id": 38155, "name": "FENGYUN 1C DEB", "group": "fengyun-1c-debris", "lat": 9.613040074593956, "lon": 81.38989530059871, "alt_km": 785.1230680439458, "timestamp": "2025-12-21T22:41:41.749772+00:00", "meta": {"OBJECT_NAME": "FENGYUN 1C DEB", "OBJECT_ID": "1999-025ERC", "EPOCH": "2025-12-18T23:08:16.383264", "MEAN_MOTION": 14.25112386, "ECCENTRICITY": 0.00979258, "INCLINATION": 98.4473, "RA_OF_ASC_NODE": 257.0769, "ARG_OF_PERICENTER": 108.7402, "MEAN_ANOMALY": 252.4435, "EPHEMERIS_TYPE": 0, "CLASSIFICATION_TYPE": "U", "NORAD_CAT_ID": 38155, "ELEMENT_SET_NO": 999, "REV_AT_EPOCH": 63864, "BSTAR": 0.0016814228, "MEAN_MOTION_DOT": 4.107e-05, "MEAN_MOTION_DDOT": 0}, "tle": {"line1": "1 38155U 99025ERC 25352.96407851  .00004107  00000+0  16814-2 0  9997", "line2": "2 38155  98.4473 257.0769 0097925 108.7402 252.4435 14.25112386638644"}}, "geometry": {"type": "Point", "coordinates": [81.38989530059871, 9.613040074593956]}}, {"type": "Feature", "properties": {"norad_id": 38157, "name": "FENGYUN 1C DEB", "group": "fengyun-1c-debris", "lat": 66.3609235651181, "lon": 106.67205404770816, "alt_km": 630.3584871775765, "timestamp": "2025-12-21T22:41:41.749782+00:00", "meta": {"OBJECT_NAME": "FENGYUN 1C DEB", "OBJECT_ID": "1999-025ERE", "EPOCH": "2025-12-21T13:44:50.334720", "MEAN_MOTION": 14.21767453, "ECCENTRICITY": 0.02743392, "INCLINATION": 99.6569, "RA_OF_ASC_NODE": 263.3713, "ARG_OF_PERICENTER": 89.5937, "MEAN_ANOMALY": 273.6665, "EPHEMERIS_TYPE": 0, "CLASSIFICATION_TYPE": "U", "NORAD_CAT_ID": 38157, "ELEMENT_SET_NO": 999, "REV_AT_EPOCH": 76373, "BSTAR": 0.00051536348, "MEAN_MOTION_DOT": 1.606e-05, "MEAN_MOTION_DDOT": 0}, "tle": {"line1": "1 38157U 99025ERE 25355.57280480  .00001606  00000+0  51536-3 0  9998", "line2": "2 38157  99.6569 263.3713 0274339  89.5937 273.6665 14.21767453763735"}}, "geometry": {"type": "Point", "coordinates": [106.67205404770816, 66.3609235651181]}}, {"type": "Feature", "properties": {"norad_id": 38159, "name": "FENGYUN 1C DEB", "group": "fengyun-1c-debris", "lat": -64.93664049111516, "lon": -91.63428806372357, "alt_km": 850.4582834154826, "timestamp": "2025-12-21T22:41:41.749792+00:00", "meta": {"OBJECT_NAME": "FENGYUN 1C DEB", "OBJECT_ID": "1999-025ERG", "EPOCH": "2025-12-04T22:05:20.152032", "MEAN_MOTION": 14.03448484, "ECCENTRICITY": 0.005704, "INCLINATION": 99.3156, "RA_OF_ASC_NODE": 230.39, "ARG_OF_PERICENTER": 2.347, "MEAN_ANOMALY": 357.7952, "EPHEMERIS_TYPE": 0, "CLASSIFICATION_TYPE": "U", "NORAD_CAT_ID": 38159, "ELEMENT_SET_NO": 999, "REV_AT_EPOCH": 83002, "BSTAR": 0.0010527, "MEAN_MOTION_DOT": 1.625e-05, "MEAN_MOTION_DDOT": 0}, "tle": {"line1": "1 38159U 99025ERG 25338.92037213  .00001625  00000+0  10527-2 0  9999", "line2": "2 38159  99.3156 230.3900 0057040   2.3470 357.7952 14.03448484830021"}}, "geometry": {"type": "Point", "coordinates": [-91.63428806372357, -64.93664049111516]}}, {"type": "Feature", "properties": {"norad_id": 38163, "name": "FENGYUN 1C DEB", "group": "fengyun-1c-debris", "lat": -62.899324006068554, "lon": 50.85593492437804, "alt_km": 869.438922970824, "timestamp": "2025-12-21T22:41:41.749802+00:00", "meta": {"OBJECT_NAME": "FENGYUN 1C DEB", "OBJECT_ID": "1999-025ERL", "EPOCH": "2025-12-18T21:33:29.990592", "MEAN_MOTION": 14.05931251, "ECCENTRICITY": 0.00762702, "INCLINATION": 99.1281, "RA_OF_ASC_NODE": 29.4748, "ARG_OF_PERICENTER": 225.191, "MEAN_ANOMALY": 134.304, "EPHEMERIS_TYPE": 0, "CLASSIFICATION_TYPE": "U", "NORAD_CAT_ID": 38163, "ELEMENT_SET_NO": 999, "REV_AT_EPOCH": 24628, "BSTAR": 0.00077081788, "MEAN_MOTION_DOT": 1.25e-05, "MEAN_MOTION_DDOT": 0}, "tle": {"line1": "1 38163U 99025ERL 25352.89826378  .00001250  00000+0  77082-3 0  9998", "line2": "2 38163  99.1281  29.4748 0076270 225.1910 134.3040 14.05931251246287"}}, "geometry": {"type": "Point", "coordinates": [50.85593492437804, -62.899324006068554]}}, {"type": "Feature", "properties": {"norad_id": 38166, "name": "FENGYUN 1C DEB", "group": "fengyun-1c-debris", "lat": -73.2040288308404, "lon": 131.41762817404148, "alt_km": 797.0593591211582, "timestamp": "2025-12-21T22:41:41.749812+00:00", "meta": {"OBJECT_NAME": "FENGYUN 1C DEB", "OBJECT_ID": "1999-025ERP", "EPOCH": "2025-12-21T12:58:42.923712", "MEAN_MOTION": 14.31047784, "ECCENTRICITY": 0.00517906, "INCLINATION": 99.0785, "RA_OF_ASC_NODE": 99.0082, "ARG_OF_PERICENTER": 18.116, "MEAN_ANOMALY": 342.1852, "EPHEMERIS_TYPE": 0, "CLASSIFICATION_TYPE": "U", "NORAD_CAT_ID": 38166, "ELEMENT_SET_NO": 999, "REV_AT_EPOCH": 63898, "BSTAR": 0.0018967057, "MEAN_MOTION_DOT": 5.024e-05, "MEAN_MOTION_DDOT": 0}, "tle": {"line1": "1 38166U 99025ERP 25355.54077458  .00005024  00000+0  18967-2 0  9992", "line2": "2 38166  99.0785  99.0082 0051790  18.1160 342.1852 14.31047784638989"}}, "geometry": {"type": "Point", "coordinates": [131.41762817404148, -73.2040288308404]}}, {"type": "Feature", "properties": {"norad_id": 38169, "name": "FENGYUN 1C DEB", "group": "fengyun-1c-debris", "lat": -34.580638058847015, "lon": -22.639889063819474, "alt_km": 655.9815610080468, "timestamp": "2025-12-21T22:41:41.749822+00:00", "meta": {"OBJECT_NAME": "FENGYUN 1C DEB", "OBJECT_ID": "1999-025ERS", "EPOCH": "2025-12-17T04:37:40.598400", "MEAN_MOTION": 14.71570377, "ECCENTRICITY": 0.00320132, "INCLINATION": 98.9779, "RA_OF_ASC_NODE": 325.865, "ARG_OF_PERICENTER": 54.7995, "MEAN_ANOMALY": 305.6199, "EPHEMERIS_TYPE": 0, "CLASSIFICATION_TYPE": "U", "NORAD_CAT_ID": 38169, "ELEMENT_SET_NO": 999, "REV_AT_EPOCH": 61334, "BSTAR": 0.002130707, "MEAN_MOTION_DOT": 0.00013312, "MEAN_MOTION_DDOT": 0}, "tle": {"line1": "1 38169U 99025ERS 25351.19283100  .00013312  00000+0  21307-2 0  9996", "line2": "2 38169  98.9779 325.8650 0032013  54.7995 305.6199 14.71570377613347"}}, "geometry": {"type": "Point", "coordinates": [-22.639889063819474, -34.580638058847015]}}, {"type": "Feature", "properties": {"norad_id": 38173, "name": "FENGYUN 1C DEB", "group": "fengyun-1c-debris", "lat": -42.72026100858749, "lon": 68.17373282921888, "alt_km": 859.6491993380241, "timestamp": "2025-12-21T22:41:41.749832+00:00", "meta": {"OBJECT_NAME": "FENGYUN 1C DEB", "OBJECT_ID": "1999-025ERW", "EPOCH": "2025-12-16T11:20:48.017472", "MEAN_MOTION": 14.37192423, "ECCENTRICITY": 0.01631615, "INCLINATION": 99.0007, "RA_OF_ASC_NODE": 250.8645, "ARG_OF_PERICENTER": 101.6732, "MEAN_ANOMALY": 260.2814, "EPHEMERIS_TYPE": 0, "CLASSIFICATION_TYPE": "U", "NORAD_CAT_ID": 38173, "ELEMENT_SET_NO": 999, "REV_AT_EPOCH": 60697, "BSTAR": 0.00064310917, "MEAN_MOTION_DOT": 2.179e-05, "MEAN_MOTION_DDOT": 0}, "tle": {"line1": "1 38173U 99025ERW 25350.47277798  .00002179  00000+0  64311-3 0  9999", "line2": "2 38173  99.0007 250.8645 0163161 101.6732 260.2814 14.37192423606974"}}, "geometry": {"type": "Point", "coordinates": [68.17373282921888, -42.72026100858749]}}]}